[{"OBJECT_NAME":"STARLINK-3300","OBJECT_ID":"2022-001AQ","EPOCH":"2026-03-09T14:59:19.080096","MEAN_MOTION":15.08840283,"ECCENTRICITY":0.0001396,"INCLINATION":53.2173,"RA_OF_ASC_NODE":179.4137,"ARG_OF_PERICENTER":79.4441,"MEAN_ANOMALY":280.6709,"EPHEMERIS_TYPE":0,"CLASSIFICATION_TYPE":"U","NORAD_CAT_ID":50841,"ELEMENT_SET_NO":999,"REV_AT_EPOCH":23025,"BSTAR":2.1192e-5,"MEAN_MOTION_DOT":4.9e-7,"MEAN_MOTION_DDOT":0},{"OBJECT_NAME":"LANDSAT 5","OBJECT_ID":"1984-021A","EPOCH":"2026-03-09T17:06:39.595392","MEAN_MOTION":15.03956175,"ECCENTRICITY":0.00705197,"INCLINATION":98.0698,"RA_OF_ASC_NODE":343.5816,"ARG_OF_PERICENTER":90.3041,"MEAN_ANOMALY":270.6265,"EPHEMERIS_TYPE":0,"CLASSIFICATION_TYPE":"U","NORAD_CAT_ID":14780,"ELEMENT_SET_NO":999,"REV_AT_EPOCH":77643,"BSTAR":0.00029889959,"MEAN_MOTION_DOT":4.286e-5,"MEAN_MOTION_DDOT":0}]
